C/2024 G7 (ATLAS),h,02/10.1895/2025,131.5179,191.9545,289.6588,1.001904,6.027711,2000,7.0,4.0
# From MPEC 2024-Q05
A/2024 G8,e,97.4087,11.2481,249.1586,142.7409,0.0005779,0.99178635,0.0000,06/15.5993/2024,2000,g 20.0,2.0
# From MPEC 2024-JU4
P/2024 J1 (PANSTARRS),e,13.1582,321.9448,200.3463,3.808196,0.1326249,0.30761226,55.5422,01/03.0/2025,2000,g 14.5,4.0
# From MPEC 2025-A40
C/2024 J2 (Wierzchos),e,79.2967,189.0596,143.1574,147.8609,0.0005482,0.98775281,0.0000,03/19.7766/2025,2000,g 11.5,4.0
# From MPEC 2024-UA9
C/2024 J3 (ATLAS),h,11/25.2873/2026,75.6368,285.9615,74.0917,1.000911,3.864795,2000,5.0,4.0
# From MPEC 2024-TD8
C/2024 J4 (Lemmon),e,117.5338,19.2998,127.8622,5717,0.0000023,0.99900386,0.0000,04/26.0717/2025,2000,g  8.0,4.0
# From MPEC 2024-LB4
P/2024 K1 (PANSTARRS),e,1.7862,251.6919,351.9446,6.845608,0.0550283,0.49517219,13.1499,01/03.0/2025,2000,g 13.5,4.0
# From MPEC 2024-RQ6
C/2024 L1 (PANSTARRS),e,99.1700,45.1399,171.8182,11.46275,0.0253963,0.53345537,357.1968,01/03.0/2025,2000,g 10.0,4.0
# From MPEC 2024-P23
C/2024 L2 (PANSTARRS),e,139.4880,266.2856,345.6372,466.7645,0.0000977,0.98216194,0.0000,06/13.1467/2025,2000,g  7.5,3.2
# From MPEC 2024-RQ6
C/2024 L3 (PANSTARRS),h,11/24.3814/2023,111.5926,294.9903,59.0873,1.004435,6.858208,2000,9.5,4.0
# From MPEC 2024-RQ6
P/2024 L4 (Rankin),e,10.0466,139.7777,53.7022,2.228283,0.2963115,0.69838885,78.1401,01/03.0/2025,2000,g 21.5,4.0
# From MPEC 2024-TD8
C/2024 L5 (ATLAS),h,03/10.4588/2025,166.5731,139.1721,290.5258,1.037270,3.431968,2000,9.0,4.0
# From MPEC 2025-A40
C/2024 M1 (ATLAS),e,73.7100,76.2151,345.5978,29.93349,0.0060182,0.94309506,0.2647,01/03.0/2025,2000,g 12.0,4.0
# From MPEC 2024-RQ6
C/2024 N1 (PANSTARRS),h,10/18.8657/2025,88.7746,323.0136,91.2508,1.000969,4.398189,2000,10.5,4.0
# From MPEC 2025-A40
C/2024 N3 (Sarneczky),h,04/11.3745/2025,88.7288,82.6079,86.8772,1.001040,5.014595,2000,8.0,4.0
# From MPEC 2025-A40
C/2024 N4 (Sarneczky),h,01/09.9902/2025,49.7715,339.6611,116.6802,1.004478,5.397497,2000,7.5,4.0
# From MPEC 2024-PC5
C/2024 O1 (PANSTARRS),h,01/28.8593/2023,59.0759,303.3380,349.9140,1.001059,6.607862,2000,8.5,4.0
# From MPEC 2024-UA9
P/2024 O2 (PANSTARRS),e,28.9748,6.8055,310.7925,7.385254,0.0491084,0.49931970,12.6588,01/03.0/2025,2000,g 12.0,4.0
# From MPEC 2025-A40
P/2024 OC2 (PANSTARRS),e,7.6714,136.6174,258.5383,2.625827,0.2316354,0.77423245,19.8449,01/03.0/2025,2000,g 20.5,4.0
# From MPEC 2024-UQ8
P/2024 Q1 (PANSTARRS),e,5.0152,23.1383,284.4229,3.517990,0.1493696,0.53481666,30.2398,01/03.0/2025,2000,g 17.0,4.0
# From MPEC 2024-TD8
C/2024 Q3 (PANSTARRS),h,03/05.2351/2025,121.3762,337.2847,70.1321,1.001422,2.091467,2000,15.0,4.0
# From MPEC 2025-A40
C/2024 Q4 (PANSTARRS),e,3.3111,324.3142,132.9898,1033,0.0000297,0.99475496,0.0000,11/12.1092/2024,2000,g 10.0,4.0
# From MPEC 2024-TP3
P/2024 R1 (PANSTARRS),e,12.7364,84.9822,230.5970,3.451219,0.1537253,0.49295783,30.9456,01/03.0/2025,2000,g 18.0,4.0
# From MPEC 2024-TD8
P/2024 R2 (PANSTARRS),e,15.1057,193.0266,203.9026,3.139267,0.1771992,0.26662249,16.5356,01/03.0/2025,2000,g 15.5,4.0
# From MPEC 2024-YC7
P/2024 R3 (PANSTARRS),e,14.7296,33.2801,309.1422,3.198488,0.1723007,0.26676695,41.3716,01/03.0/2025,2000,g 15.0,4.0
# From MPEC 2024-YC7
C/2024 R4 (PANSTARRS),h,10/26.5785/2027,95.3503,345.9301,108.9768,1.002728,4.410054,2000,6.5,4.0
# From MPEC 2024-VB7
C/2024 S1 (ATLAS),e,141.9128,347.2150,69.2180,87.57003,0.0012027,0.99990908,0.0000,10/28.4861/2024,2000,g 15.5,4.0
# From MPEC 2025-A40
P/2024 S2 (Rankin),e,7.5248,8.3551,49.1906,5.043212,0.0870248,0.59389573,9.4512,01/03.0/2025,2000,g 15.0,4.0
# From MPEC 2025-A40
P/2024 T1 (Rankin),e,17.6196,279.7094,164.8808,6.604553,0.0580683,0.65371501,5.4904,01/03.0/2025,2000,g 14.5,4.0
# From MPEC 2025-A40
P/2024 T2 (Rankin),e,12.9283,113.0606,343.8313,6.176281,0.0642116,0.68066729,1.6473,01/03.0/2025,2000,g 16.0,4.0
# From MPEC 2025-A40
C/2024 T3 (PANSTARRS),e,53.4834,74.8318,336.8813,82.83408,0.0013073,0.95513610,359.9069,01/03.0/2025,2000,g 11.5,4.0
# From MPEC 2025-A40
C/2024 T5 (ATLAS),h,05/06.4388/2027,52.3872,100.6826,352.4145,1.001795,3.843827,2000,5.5,4.0
# From MPEC 2025-A40
C/2024 U1 (PANSTARRS),e,128.7516,270.2606,188.0776,562.3759,0.0000739,0.99140098,0.0000,06/30.5228/2024,2000,g 10.0,4.0
# From MPEC 2024-YO4
A/2024 U2,e,120.6198,56.0641,29.9079,13725,0.0000006,0.99940448,0.0000,01/16.8014/2026,2000,g 12.1,2.0
# From MPEC 2025-A40
C/2024 V1 (Borisov),e,54.6222,328.1956,168.6616,234.3783,0.0002747,0.99010805,0.0000,04/04.0976/2025,2000,g 14.8,4.0
# From MPEC 2024-YC7
C/2024 V2 (Sarneczky),e,95.9718,102.2017,13.7168,39.28176,0.0040033,0.96835831,0.2409,01/03.0/2025,2000,g 19.0,4.0
# From MPEC 2024-XR9
C/2024 W1 (PANSTARRS),e,83.2051,310.7264,256.8067,43.50752,0.0034345,0.94117408,359.7414,01/03.0/2025,2000,g 15.0,4.0
# From MPEC 2024-YO9
A/2024 W2,e,116.6290,241.9453,168.0602,162517,0.0000000,0.99997711,0.0000,02/27.7206/2025,2000,g 15.6,2.0
# From MPEC 2025-A40
C/2024 X1 (Fazekas),e,6.4604,352.4482,123.7244,9.453787,0.0339075,0.59474674,352.7876,01/03.0/2025,2000,g 11.3,4.0
# From MPEC 2025-A40
C/2024 X2 (ATLAS),e,109.2570,122.3849,315.8281,56.66468,0.0023107,0.93506970,359.5691,01/03.0/2025,2000,g  9.6,4.0
# From MPEC 2025-A40
P/2024 X3 (PANSTARRS),e,2.9724,113.3621,352.9362,6.975017,0.0535040,0.62528392,6.3797,01/03.0/2025,2000,g 14.6,4.0
# From MPEC 2025-A40
C/2024 X4 (PANSTARRS),e,34.6687,258.9444,153.2776,10.05614,0.0309070,0.64151819,352.5249,01/03.0/2025,2000,g 12.6,4.0
# From MPEC 2025-A40
C/2024 Y1 (Masek),e,64.8181,112.4501,238.2241,129.3066,0.0006703,0.99362645,0.0000,11/26.9322/2024,2000,g 17.6,4.0
# From  98, 1083
1P/Halley,e,162.2072,59.6946,112.6051,17.86528,0.0130524,0.96720224,185.1621,01/03.0/2025,2000,g  4.0,6.0
# From MPEC 2024-TP3
2P/Encke,e,11.3416,334.0141,187.2808,2.218258,0.2983224,0.84704112,130.8011,01/03.0/2025,2000,g 11.5,6.0
# From  76, 1135
3D/Biela,e,7.8877,276.1879,192.2930,3.539256,0.1480254,0.76753664,334.2138,01/03.0/2025,2000,g 11.0,6.0
# From  76, 1135
3D-A/Biela,e,7.2156,276.6836,192.1204,3.550129,0.1473459,0.76711191,4.6972,01/03.0/2025,2000,g 11.0,6.0
# From  76, 1135
3D-B/Biela,e,7.8798,276.2027,192.2541,3.539996,0.1479789,0.76783473,333.9443,01/03.0/2025,2000,g 11.0,6.0
# From MPEC 2023-FK0
4P/Faye,e,8.0052,192.9181,207.1273,3.829410,0.1315244,0.57653359,159.3893,01/03.0/2025,2000,g  8.0,6.0
# From  27, 116
5D/Brorsen,e,18.6306,94.9064,20.2999,3.158325,0.1755977,0.83782837,110.0583,01/03.0/2025,2000,g 10.5,6.0
# From MPEC 2022-WD2
6P/d'Arrest,e,19.4993,138.9506,178.0675,3.497648,0.1506746,0.61188769,181.4524,01/03.0/2025,2000,g  7.5,16.0
# From MPEC 2023-A50
7P/Pons-Winnecke,e,22.5052,93.2676,172.4402,3.401486,0.1571090,0.64183791,206.8129,01/03.0/2025,2000,g 10.0,6.0
# From MPEC 2022-HC2
8P/Tuttle,e,54.9835,270.1768,207.4714,5.704710,0.0723359,0.82062584,88.5149,01/03.0/2025,2000,g  8.0,8.0
# From MPEC 2024-YC7
9P/Tempel,e,10.8183,67.4220,184.3252,3.268298,0.1668098,0.48157694,173.3949,01/03.0/2025,2000,g  5.5,10.0
# From MPEC 2024-R10
10P/Tempel,e,12.0277,117.8026,195.5077,3.063350,0.1838269,0.53740749,254.0821,01/03.0/2025,2000,g  5.0,10.0
# From MPEC 2024-R10
11P/Tempel-Swift-LINEAR,e,14.4346,238.8652,168.0434,3.283346,0.1656644,0.57753978,248.0492,01/03.0/2025,2000,g 17.0,4.0
# From MPEC 2024-UA9
12P/Pons-Brooks,e,74.1930,255.8549,198.9960,17.20307,0.0138132,0.95460704,3.5482,01/03.0/2025,2000,g  5.0,6.0
# From MPEC 2024-UQ8
13P/Olbers,e,44.6667,85.8467,64.4181,16.87813,0.0142140,0.93035591,2.6572,01/03.0/2025,2000,g  5.0,6.0
# From MPEC 2024-LE0
14P/Wolf,e,27.9205,202.0313,159.1911,4.256664,0.1122277,0.35678063,289.9757,01/03.0/2025,2000,g  5.5,12.0
# From MPEC 2022-ED3
15P/Finlay,e,6.7897,13.7461,347.8733,3.510484,0.1498489,0.71631722,190.2784,01/03.0/2025,2000,g 12.0,4.0
# From MPEC 2022-X67
16P/Brooks,e,3.0101,138.8357,245.3641,3.661527,0.1406730,0.48586113,190.6877,01/03.0/2025,2000,g  7.5,10.0
# From MPEC 2023-J29
17P/Holmes,e,19.0096,326.6153,24.6247,3.640870,0.1418719,0.42653606,200.5946,01/03.0/2025,2000,g 10.0,6.0
# From  19, 80
18D/Perrine-Mrkos,e,17.657,158.458,238.234,3.88322,0.128800,0.5896571,16.332,01/03.0/2025,2000,g  9.0,4.0
# From MPEC 2024-YC7
19P/Borrelly,e,29.3181,74.2140,351.9978,3.608132,0.1438071,0.63787839,153.2611,01/03.0/2025,2000,g  4.5,10.0
# From MPEC 2024-YC7
21P/Giacobini-Zinner,e,32.0502,195.3326,172.9323,3.491959,0.1510429,0.71106285,347.7117,01/03.0/2025,2000,g  9.0,6.0
# From MPEC 2024-L77
22P/Kopff,e,4.7795,120.3790,162.9070,3.422804,0.1556435,0.55405338,158.7516,01/03.0/2025,2000,g  3.0,10.4
# From MPC 14747
23P/Brorsen-Metcalf,e,19.4344,311.2939,129.8700,16.93918,0.0141373,0.97260619,0.0000,05/25.2409/2059,2000,g 10.0,6.0
# From MPC110085
24P/Schaumasse,e,11.5061,78.3701,58.3993,4.056352,0.1206426,0.70812447,315.3231,01/03.0/2025,2000,g  6.5,14.0
# From NK 378
25D/Neujmin 2,e,2.8086,279.9737,244.7858,3.222494,0.1703790,0.55055018,338.1236,01/03.0/2025,2000,g 12.5,6.0
# From MPEC 2024-TP3
26P/Grigg-Skjellerup,e,22.4339,211.5363,2.1308,3.014980,0.1882684,0.64056212,70.5404,01/03.0/2025,2000,g 12.0,16.0
# From MPC 78188
27P/Crommelin,e,29.4449,250.7108,195.8355,9.179033,0.0354412,0.91963846,173.8036,01/03.0/2025,2000,g 12.0,8.0
# From MPEC 2025-A40
28P/Neujmin,e,14.2968,346.3990,347.4668,6.982320,0.0534201,0.77285530,74.4817,01/03.0/2025,2000,g  8.5,6.0
# From MPEC 2025-A40
29P/Schwassmann-Wachmann,e,9.3565,312.4049,52.1801,6.055714,0.0661388,0.04357194,136.9531,01/03.0/2025,2000,g  4.0,4.0
# From MPEC 2025-A40
30P/Reinmuth,e,8.0533,117.2353,9.4937,3.734399,0.1365756,0.51433159,18.9572,01/03.0/2025,2000,g  9.5,6.0
# From MPEC 2025-A40
31P/Schwassmann-Wachmann,e,4.5498,114.1136,17.8560,4.231943,0.1132125,0.19324520,227.4598,01/03.0/2025,2000,g  5.0,8.0
# From MPEC 2025-A40
32P/ComasSola,e,9.9207,54.5303,54.6857,4.552819,0.1014573,0.55527367,26.1106,01/03.0/2025,2000,g  6.5,8.0
# From MPEC 2025-A40
33P/Daniel,e,22.2945,66.2826,20.2757,4.094334,0.1189677,0.45227251,6.3099,01/03.0/2025,2000,g 10.0,12.0
# From  9, 314
